{
  "type": "FeatureCollection",
  "features": [
    {
      "type": "Feature",
      "properties": {
        "norad_id": 35052,
        "name": "IRIDIUM 33 DEB",
        "group": "iridium-33-debris",
        "lat": 10.876042642368445,
        "lon": 22.830291235869062,
        "alt_km": 764.0966642088724,
        "timestamp": "2025-12-08T21:31:05.051984+00:00",
        "meta_object_name": "IRIDIUM 33 DEB",
        "meta_object_id": "1997-051NY",
        "meta_epoch": "2025-12-08T13:07:12.544608",
        "meta_mean_motion": 14.3848574,
        "meta_eccentricity": 0.00136833,
        "meta_inclination": 86.3313,
        "meta_ra_of_asc_node": 22.2739,
        "meta_arg_of_pericenter": 96.7114,
        "meta_mean_anomaly": 263.5642,
        "meta_ephemeris_type": 0,
        "meta_classification_type": "U",
        "meta_norad_cat_id": 35052,
        "meta_element_set_no": 999,
        "meta_rev_at_epoch": 87215,
        "meta_bstar": 0.00035710435,
        "meta_mean_motion_dot": 1.111e-05,
        "meta_mean_motion_ddot": 0,
        "tle_line1": "1 35052U 97051NY  25342.54667297  .00001111  00000+0  35710-3 0  9991",
        "tle_line2": "2 35052  86.3313  22.2739 0013683  96.7114 263.5642 14.38485740872150"
      },
      "geometry": {
        "type": "Point",
        "coordinates": [
          22.830291235869062,
          10.876042642368445
        ]
      }
    },
    {
      "type": "Feature",
      "properties": {
        "norad_id": 35080,
        "name": "IRIDIUM 33 DEB",
        "group": "iridium-33-debris",
        "lat": -74.32151809587627,
        "lon": -112.11550836707882,
        "alt_km": 598.8651209045183,
        "timestamp": "2025-12-08T21:31:05.051994+00:00",
        "meta_object_name": "IRIDIUM 33 DEB",
        "meta_object_id": "1997-051PF",
        "meta_epoch": "2025-12-08T04:12:23.440320",
        "meta_mean_motion": 14.85168488,
        "meta_eccentricity": 0.00618555,
        "meta_inclination": 86.2067,
        "meta_ra_of_asc_node": 54.5559,
        "meta_arg_of_pericenter": 196.3675,
        "meta_mean_anomaly": 163.5554,
        "meta_ephemeris_type": 0,
        "meta_classification_type": "U",
        "meta_norad_cat_id": 35080,
        "meta_element_set_no": 999,
        "meta_rev_at_epoch": 69620,
        "meta_bstar": 0.0097703177,
        "meta_mean_motion_dot": 0.00087525,
        "meta_mean_motion_ddot": 0,
        "tle_line1": "1 35080U 97051PF  25342.17527130  .00087525  00000+0  97703-2 0  9994",
        "tle_line2": "2 35080  86.2067  54.5559 0061855 196.3675 163.5554 14.85168488696207"
      },
      "geometry": {
        "type": "Point",
        "coordinates": [
          -112.11550836707882,
          -74.32151809587627
        ]
      }
    },
    {
      "type": "Feature",
      "properties": {
        "norad_id": 35297,
        "name": "IRIDIUM 33 DEB",
        "group": "iridium-33-debris",
        "lat": -6.397015773847719,
        "lon": -115.19362056520502,
        "alt_km": 735.4569380186795,
        "timestamp": "2025-12-08T21:31:05.052004+00:00",
        "meta_object_name": "IRIDIUM 33 DEB",
        "meta_object_id": "1997-051PM",
        "meta_epoch": "2025-12-06T00:31:29.302752",
        "meta_mean_motion": 14.45108459,
        "meta_eccentricity": 0.00170329,
        "meta_inclination": 86.3867,
        "meta_ra_of_asc_node": 65.6268,
        "meta_arg_of_pericenter": 161.2449,
        "meta_mean_anomaly": 198.9384,
        "meta_ephemeris_type": 0,
        "meta_classification_type": "U",
        "meta_norad_cat_id": 35297,
        "meta_element_set_no": 999,
        "meta_rev_at_epoch": 70329,
        "meta_bstar": 0.0012426888,
        "meta_mean_motion_dot": 4.371e-05,
        "meta_mean_motion_ddot": 0,
        "tle_line1": "1 35297U 97051PM  25340.02186693  .00004371  00000+0  12427-2 0  9999",
        "tle_line2": "2 35297  86.3867  65.6268 0017032 161.2449 198.9384 14.45108459703293"
      },
      "geometry": {
        "type": "Point",
        "coordinates": [
          -115.19362056520502,
          -6.397015773847719
        ]
      }
    },
    {
      "type": "Feature",
      "properties": {
        "norad_id": 35299,
        "name": "IRIDIUM 33 DEB",
        "group": "iridium-33-debris",
        "lat": 0.9086701510165163,
        "lon": -145.1995304972926,
        "alt_km": 740.3272540533044,
        "timestamp": "2025-12-08T21:31:05.052014+00:00",
        "meta_object_name": "IRIDIUM 33 DEB",
        "meta_object_id": "1997-051PP",
        "meta_epoch": "2025-12-08T14:43:37.905024",
        "meta_mean_motion": 14.40830502,
        "meta_eccentricity": 0.00588658,
        "meta_inclination": 86.2883,
        "meta_ra_of_asc_node": 34.9826,
        "meta_arg_of_pericenter": 115.5185,
        "meta_mean_anomaly": 36.1002,
        "meta_ephemeris_type": 0,
        "meta_classification_type": "U",
        "meta_norad_cat_id": 35299,
        "meta_element_set_no": 999,
        "meta_rev_at_epoch": 86271,
        "meta_bstar": 0.0012790004,
        "meta_mean_motion_dot": 4.2e-05,
        "meta_mean_motion_ddot": 0,
        "tle_line1": "1 35299U 97051PP  25342.61363316  .00004200  00000+0  12790-2 0  9991",
        "tle_line2": "2 35299  86.2883  34.9826 0058865 115.5185  36.1002 14.40830502862718"
      },
      "geometry": {
        "type": "Point",
        "coordinates": [
          -145.1995304972926,
          0.9086701510165163
        ]
      }
    },
    {
      "type": "Feature",
      "properties": {
        "norad_id": 35480,
        "name": "IRIDIUM 33 DEB",
        "group": "iridium-33-debris",
        "lat": 24.45669359591135,
        "lon": -155.0807461054068,
        "alt_km": 717.7914737097135,
        "timestamp": "2025-12-08T21:31:05.052024+00:00",
        "meta_object_name": "IRIDIUM 33 DEB",
        "meta_object_id": "1997-051QA",
        "meta_epoch": "2025-12-01T21:29:27.496896",
        "meta_mean_motion": 14.49686619,
        "meta_eccentricity": 0.00155495,
        "meta_inclination": 86.3575,
        "meta_ra_of_asc_node": 29.6125,
        "meta_arg_of_pericenter": 136.7189,
        "meta_mean_anomaly": 223.524,
        "meta_ephemeris_type": 0,
        "meta_classification_type": "U",
        "meta_norad_cat_id": 35480,
        "meta_element_set_no": 999,
        "meta_rev_at_epoch": 86874,
        "meta_bstar": 0.000651702,
        "meta_mean_motion_dot": 2.53e-05,
        "meta_mean_motion_ddot": 0,
        "tle_line1": "1 35480U 97051QA  25335.89545714  .00002530  00000+0  65170-3 0  9994",
        "tle_line2": "2 35480  86.3575  29.6125 0015549 136.7189 223.5240 14.49686619868745"
      },
      "geometry": {
        "type": "Point",
        "coordinates": [
          -155.0807461054068,
          24.45669359591135
        ]
      }
    },
    {
      "type": "Feature",
      "properties": {
        "norad_id": 35484,
        "name": "IRIDIUM 33 DEB",
        "group": "iridium-33-debris",
        "lat": 3.7912977554084186,
        "lon": -5.2112137154012075,
        "alt_km": 586.0659020043113,
        "timestamp": "2025-12-08T21:31:05.052037+00:00",
        "meta_object_name": "IRIDIUM 33 DEB",
        "meta_object_id": "1997-051QE",
        "meta_epoch": "2025-12-01T19:32:14.692416",
        "meta_mean_motion": 14.97587734,
        "meta_eccentricity": 0.00218288,
        "meta_inclination": 86.3628,
        "meta_ra_of_asc_node": 357.8533,
        "meta_arg_of_pericenter": 162.6444,
        "meta_mean_anomaly": 197.5538,
        "meta_ephemeris_type": 0,
        "meta_classification_type": "U",
        "meta_norad_cat_id": 35484,
        "meta_element_set_no": 999,
        "meta_rev_at_epoch": 61852,
        "meta_bstar": 0.0025030806,
        "meta_mean_motion_dot": 0.00029486,
        "meta_mean_motion_ddot": 0,
        "tle_line1": "1 35484U 97051QE  25335.81405894  .00029486  00000+0  25031-2 0  9994",
        "tle_line2": "2 35484  86.3628 357.8533 0021828 162.6444 197.5538 14.97587734618526"
      },
      "geometry": {
        "type": "Point",
        "coordinates": [
          -5.2112137154012075,
          3.7912977554084186
        ]
      }
    },
    {
      "type": "Feature",
      "properties": {
        "norad_id": 35488,
        "name": "IRIDIUM 33 DEB",
        "group": "iridium-33-debris",
        "lat": -29.62977632951491,
        "lon": -59.44552649220305,
        "alt_km": 624.0894080580974,
        "timestamp": "2025-12-08T21:31:05.052057+00:00",
        "meta_object_name": "IRIDIUM 33 DEB",
        "meta_object_id": "1997-051QJ",
        "meta_epoch": "2025-12-08T03:50:11.826240",
        "meta_mean_motion": 14.82876348,
        "meta_eccentricity": 0.00303438,
        "meta_inclination": 86.325,
        "meta_ra_of_asc_node": 302.9889,
        "meta_arg_of_pericenter": 57.3882,
        "meta_mean_anomaly": 303.0263,
        "meta_ephemeris_type": 0,
        "meta_classification_type": "U",
        "meta_norad_cat_id": 35488,
        "meta_element_set_no": 999,
        "meta_rev_at_epoch": 88198,
        "meta_bstar": 0.001993883,
        "meta_mean_motion_dot": 0.00016327,
        "meta_mean_motion_ddot": 0,
        "tle_line1": "1 35488U 97051QJ  25342.15985910  .00016327  00000+0  19939-2 0  9995",
        "tle_line2": "2 35488  86.3250 302.9889 0030343  57.3882 303.0263 14.82876348881981"
      },
      "geometry": {
        "type": "Point",
        "coordinates": [
          -59.44552649220305,
          -29.62977632951491
        ]
      }
    }
  ]
}